[{"OBJECT_NAME":"OBJECT H","OBJECT_ID":"2023-091H","EPOCH":"2026-03-09T22:34:46.487712","MEAN_MOTION":15.26380881,"ECCENTRICITY":0.00117854,"INCLINATION":97.5166,"RA_OF_ASC_NODE":131.4381,"ARG_OF_PERICENTER":104.1062,"MEAN_ANOMALY":256.1487,"EPHEMERIS_TYPE":0,"CLASSIFICATION_TYPE":"U","NORAD_CAT_ID":57173,"ELEMENT_SET_NO":999,"REV_AT_EPOCH":14915,"BSTAR":0.00056321781,"MEAN_MOTION_DOT":0.00014617,"MEAN_MOTION_DDOT":0},{"OBJECT_NAME":"STARLINK-32739","OBJECT_ID":"2025-003M","EPOCH":"2026-03-09T23:07:13.107360","MEAN_MOTION":15.27603988,"ECCENTRICITY":0.00021271,"INCLINATION":43,"RA_OF_ASC_NODE":287.4049,"ARG_OF_PERICENTER":255.3068,"MEAN_ANOMALY":104.7548,"EPHEMERIS_TYPE":0,"CLASSIFICATION_TYPE":"U","NORAD_CAT_ID":62498,"ELEMENT_SET_NO":999,"REV_AT_EPOCH":6666,"BSTAR":0.0013963144,"MEAN_MOTION_DOT":0.00038391,"MEAN_MOTION_DDOT":0}]
